$$SOE
2461302.500000000, A.D. 2026-Sep-19 00:00:00.0000, -3.424720534106417E+08, -3.231070365186393E+08, 2.380720937610437E+07,
2461309.500000000, A.D. 2026-Sep-26 00:00:00.0000, -3.351024201412325E+08, -3.303291395598385E+08, 2.345004351269552E+07,
2461316.500000000, A.D. 2026-Oct-03 00:00:00.0000, -3.275772143512365E+08, -3.373979050543836E+08, 2.308199137901093E+07,
2461323.500000000, A.D. 2026-Oct-10 00:00:00.0000, -3.198996379259027E+08, -3.443097535060097E+08, 2.270320331425080E+07,
2461330.500000000, A.D. 2026-Oct-17 00:00:00.0000, -3.120729833207140E+08, -3.510611730999945E+08, 2.231383575657485E+07,
2461337.500000000, A.D. 2026-Oct-24 00:00:00.0000, -3.041006322084755E+08, -3.576487224224805E+08, 2.191405118659441E+07,
2461344.500000000, A.D. 2026-Oct-31 00:00:00.0000, -2.959860539442095E+08, -3.640690333152527E+08, 2.150401804297611E+07,
2461351.500000000, A.D. 2026-Nov-07 00:00:00.0000, -2.877328035091977E+08, -3.703188137878748E+08, 2.108391058527553E+07,
2461358.500000000, A.D. 2026-Nov-14 00:00:00.0000, -2.793445187337793E+08, -3.763948500955667E+08, 2.065390875829558E+07,
2461365.500000000, A.D. 2026-Nov-21 00:00:00.0000, -2.708249186109155E+08, -3.822940072963954E+08, 2.021419828004239E+07,
2461372.500000000, A.D. 2026-Nov-28 00:00:00.0000, -2.621778036986599E+08, -3.880132312917062E+08, 1.976497079913463E+07,
2461379.500000000, A.D. 2026-Dec-05 00:00:00.0000, -2.534070549930482E+08, -3.935495530032627E+08, 1.930642373634271E+07,
2461386.500000000, A.D. 2026-Dec-12 00:00:00.0000, -2.445166311085946E+08, -3.989000915729684E+08, 1.883876004982497E+07,
2461393.500000000, A.D. 2026-Dec-19 00:00:00.0000, -2.355105656555418E+08, -4.040620565744624E+08, 1.836218809807174E+07,
2461400.500000000, A.D. 2026-Dec-26 00:00:00.0000, -2.263929649577409E+08, -4.090327501000484E+08, 1.787692154293299E+07,
2461407.500000000, A.D. 2027-Jan-02 00:00:00.0000, -2.171680058368733E+08, -4.138095689097217E+08, 1.738317925197250E+07,
2461414.500000000, A.D. 2027-Jan-09 00:00:00.0000, -2.078399333481793E+08, -4.183900066187080E+08, 1.688118519119024E+07,
2461421.500000000, A.D. 2027-Jan-16 00:00:00.0000, -1.984130584354700E+08, -4.227716559118337E+08, 1.637116830574474E+07,
2461428.500000000, A.D. 2027-Jan-23 00:00:00.0000, -1.888917554634291E+08, -4.269522108215891E+08, 1.585336238140053E+07,
2461435.500000000, A.D. 2027-Jan-30 00:00:00.0000, -1.792804594439426E+08, -4.309294691147964E+08, 1.532800586572304E+07,
2461442.500000000, A.D. 2027-Feb-06 00:00:00.0000, -1.695836625363946E+08, -4.347013344449621E+08, 1.479534163795021E+07,
2461449.500000000, A.D. 2027-Feb-13 00:00:00.0000, -1.598059102870190E+08, -4.382658170475537E+08, 1.425561686948112E+07,
2461456.500000000, A.D. 2027-Feb-20 00:00:00.0000, -1.499517999756005E+08, -4.416210337656391E+08, 1.370908312708533E+07,
2461463.500000000, A.D. 2027-Feb-27 00:00:00.0000, -1.400259796775478E+08, -4.447652106164408E+08, 1.315599632805327E+07,
2461470.500000000, A.D. 2027-Mar-06 00:00:00.0000, -1.300331450277358E+08, -4.476966859740193E+08, 1.259661642761481E+07,
2461477.500000000, A.D. 2027-Mar-13 00:00:00.0000, -1.199780352912059E+08, -4.504139123154849E+08, 1.203120715297720E+07,
2461484.500000000, A.D. 2027-Mar-20 00:00:00.0000, -1.098654298741395E+08, -4.529154573609466E+08, 1.146003581935796E+07,
2461491.500000000, A.D. 2027-Mar-27 00:00:00.0000, -9.970014507596822E+07, -4.552000051517953E+08, 1.088337316454336E+07,
2461498.500000000, A.D. 2027-Apr-03 00:00:00.0000, -8.948703088197601E+07, -4.572663571120250E+08, 1.030149317938322E+07,
2461505.500000000, A.D. 2027-Apr-10 00:00:00.0000, -7.923096773768367E+07, -4.591134330683741E+08, 9.714672930511415E+06,
2461512.500000000, A.D. 2027-Apr-17 00:00:00.0000, -6.893686328658275E+07, -4.607402722438466E+08, 9.123192372302681E+06,
2461519.500000000, A.D. 2027-Apr-24 00:00:00.0000, -5.860964899688948E+07, -4.621460342872736E+08, 8.527334136076063E+06,
2461526.500000000, A.D. 2027-May-01 00:00:00.0000, -4.825427638319855E+07, -4.633300003109553E+08, 7.927383271740347E+06,
2461533.500000000, A.D. 2027-May-08 00:00:00.0000, -3.787571252115155E+07, -4.642915731870981E+08, 7.323626975222886E+06,
2461540.500000000, A.D. 2027-May-15 00:00:00.0000, -2.747893635723902E+07, -4.650302761479636E+08, 6.716354517190576E+06,
2461547.500000000, A.D. 2027-May-22 00:00:00.0000, -1.706893738212378E+07, -4.655457522790626E+08, 6.105857304878324E+06,
2461554.500000000, A.D. 2027-May-29 00:00:00.0000, -6.650713315423454E+06, -4.658377663724269E+08, 5.492428649429858E+06,
2461561.500000000, A.D. 2027-Jun-05 00:00:00.0000, 3.770734078535960E+06, -4.659062060085687E+08, 4.876363413896620E+06,
2461568.500000000, A.D. 2027-Jun-12 00:00:00.0000, 1.419040303143987E+07, -4.657510814355513E+08, 4.257957761736155E+06,
2461575.500000000, A.D. 2027-Jun-19 00:00:00.0000, 2.460329533207469E+07, -4.653725251798062E+08, 3.637508960189939E+06,
2461582.500000000, A.D. 2027-Jun-26 00:00:00.0000, 3.500441968228198E+07, -4.647707916494536E+08, 3.015315191998512E+06,
2461589.500000000, A.D. 2027-Jul-03 00:00:00.0000, 4.538879497528092E+07, -4.639462567212067E+08, 2.391675364463300E+06,
2461596.500000000, A.D. 2027-Jul-10 00:00:00.0000, 5.575145352912003E+07, -4.628994173017585E+08, 1.766888913640469E+06,
2461603.500000000, A.D. 2027-Jul-17 00:00:00.0000, 6.608744430806931E+07, -4.616308909029852E+08, 1.141255597650975E+06,
2461610.500000000, A.D. 2027-Jul-24 00:00:00.0000, 7.639183628492135E+07, -4.601414152954361E+08, 5.150752601866126E+05,
2461617.500000000, A.D. 2027-Jul-31 00:00:00.0000, 8.665972235176991E+07, -4.584318480071708E+08, -1.113524536771774E+05,
2461624.500000000, A.D. 2027-Aug-07 00:00:00.0000, 9.688622357409543E+07, -4.565031645190156E+08, -7.377283162820339E+05,
2461631.500000000, A.D. 2027-Aug-14 00:00:00.0000, 1.070664914821733E+08, -4.543564554115905E+08, -1.363753480062872E+06,
2461638.500000000, A.D. 2027-Aug-21 00:00:00.0000, 1.171957090136069E+08, -4.519929258293583E+08, -1.989129515540242E+06,
2461645.500000000, A.D. 2027-Aug-28 00:00:00.0000, 1.272690935345375E+08, -4.494138960604549E+08, -2.613558740841985E+06,
2461652.500000000, A.D. 2027-Sep-04 00:00:00.0000, 1.372819007547857E+08, -4.466208007331735E+08, -3.236744529771507E+06,
2461659.500000000, A.D. 2027-Sep-11 00:00:00.0000, 1.472294281377046E+08, -4.436151872933738E+08, -3.858391524407864E+06,
2461666.500000000, A.D. 2027-Sep-18 00:00:00.0000, 1.571070179341570E+08, -4.403987144155411E+08, -4.478205817576736E+06,
2461673.500000000, A.D. 2027-Sep-25 00:00:00.0000, 1.669100600659143E+08, -4.369731504275706E+08, -5.095895132554889E+06,
2461680.500000000, A.D. 2027-Oct-02 00:00:00.0000, 1.766339949301215E+08, -4.333403717240622E+08, -5.711169004697025E+06,
2461687.500000000, A.D. 2027-Oct-09 00:00:00.0000, 1.862743161442187E+08, -4.295023611748209E+08, -6.323738967496991E+06,
2461694.500000000, A.D. 2027-Oct-16 00:00:00.0000, 1.958265732920714E+08, -4.254612065857978E+08, -6.933318753436565E+06,
2461701.500000000, A.D. 2027-Oct-23 00:00:00.0000, 2.052863749293807E+08, -4.212190992213500E+08, -7.539624533915073E+06,
2461708.500000000, A.D. 2027-Oct-30 00:00:00.0000, 2.146493922212770E+08, -4.167783317817755E+08, -8.142375182628989E+06,
2461715.500000000, A.D. 2027-Nov-06 00:00:00.0000, 2.239113620460487E+08, -4.121412947126476E+08, -8.741292363330573E+06,
2461722.500000000, A.D. 2027-Nov-13 00:00:00.0000, 2.330680875759078E+08, -4.073104729255687E+08, -9.336100429421693E+06,
2461729.500000000, A.D. 2027-Nov-20 00:00:00.0000, 2.421154392331766E+08, -4.022884451180133E+08, -9.926526580083817E+06,
2461736.500000000, A.D. 2027-Nov-27 00:00:00.0000, 2.510493576371632E+08, -3.970778827298456E+08, -1.051230117888480E+07,
2461743.500000000, A.D. 2027-Dec-04 00:00:00.0000, 2.598658565165493E+08, -3.916815476251619E+08, -1.109315797439685E+07,
2461750.500000000, A.D. 2027-Dec-11 00:00:00.0000, 2.685610250358924E+08, -3.861022894661033E+08, -1.166883425094429E+07,
2461757.500000000, A.D. 2027-Dec-18 00:00:00.0000, 2.771310298113068E+08, -3.803430431212500E+08, -1.223907096225652E+07,
2461764.500000000, A.D. 2027-Dec-25 00:00:00.0000, 2.855721167675862E+08, -3.744068261154679E+08, -1.280361286196017E+07,
2461771.500000000, A.D. 2028-Jan-01 00:00:00.0000, 2.938806128778215E+08, -3.682967361118604E+08, -1.336220863331126E+07,
$$EOE